NORAD_CAT_ID,OBJECT_NAME,OBJECT_TYPE,EPOCH,MEAN_MOTION,ECCENTRICITY,INCLINATION,RA_OF_ASC_NODE,ARG_OF_PERICENTER,MEAN_ANOMALY,BSTAR,MEAN_MOTION_DOT,MEAN_MOTION_DDOT,TLE_LINE0,TLE_LINE1,TLE_LINE2,SEMIMAJOR_AXIS,PERIOD,APOGEE,PERIGEE,DECAYED
51866.0,STARLINK-3553,PAYLOAD,2022-10-01 17:24:58,15.08843833,0.0001978,53.2157,242.8621,45.1413,314.974,8.662100000000001e-05,1.091e-05,0.0,0 STARLINK-3553,1 51866U 22022Q   22274.72567625  .00001091  00000-0  86621-4 0  9999,2 51866  53.2157 242.8621 0001978  45.1413 314.9740 15.08843833 33657,6917.869000000002,95.437,541.102,538.365,0.0
51866.0,STARLINK-3553,PAYLOAD,2022-10-02 04:32:40,15.08848665,0.0001723,53.2161,240.7797,48.8386,311.2755,3.6981e-05,3.01e-06,0.0,0 STARLINK-3553,1 51866U 22022Q   22275.18935224  .00000301  00000-0  36981-4 0  9991,2 51866  53.2161 240.7797 0001723  48.8386 311.2755 15.08848665 33722,6917.854,95.437,540.911,538.5269999999998,0.0
51866.0,STARLINK-3553,PAYLOAD,2022-10-03 04:23:26,15.08851872,0.0001976999999999,53.216,236.32,45.5313,314.584,6.7794e-05,7.91e-06,0.0,0 STARLINK-3553,1 51866U 22022Q   22276.18294935  .00000791  00000-0  67794-4 0  9998,2 51866  53.2160 236.3200 0001977  45.5313 314.5840 15.08851872 33877,6917.844,95.437,541.077,538.341,0.0
51866.0,STARLINK-3553,PAYLOAD,2022-10-03 20:17:17,15.08855625,0.0001992,53.2161,233.3462,42.2015,317.913,0.00017726,2.535e-05,0.0,0 STARLINK-3553,1 51866U 22022Q   22276.84534370  .00002535  00000-0  17726-3 0  9998,2 51866  53.2161 233.3462 0001992  42.2015 317.9130 15.08855625 33975,6917.833000000001,95.437,541.076,538.32,0.0
51866.0,STARLINK-3553,PAYLOAD,2022-10-04 02:38:50,15.08850905,0.0001844,53.2148,232.1565,44.1755,315.9384,0.00016962,2.413e-05,0.0,0 STARLINK-3553,1 51866U 22022Q   22277.11030663  .00002413  00000-0  16962-3 0  9991,2 51866  53.2148 232.1565 0001844  44.1755 315.9384 15.08850905 34010,6917.847,95.437,540.988,538.436,0.0
51866.0,STARLINK-3553,PAYLOAD,2022-10-04 13:46:32,15.08841327,0.0001889999999999,53.2152,230.0748,47.8908,312.2245,0.00019127,2.757e-05,0.0,0 STARLINK-3553,1 51866U 22022Q   22277.57399121  .00002757  00000-0  19127-3 0  9995,2 51866  53.2152 230.0748 0001890  47.8908 312.2245 15.08841327 34087,6917.876,95.437,541.049,538.434,0.0
51866.0,STARLINK-3553,PAYLOAD,2022-10-05 05:40:25,15.08833923,0.000206,53.2163,227.101,47.834,312.2827,-6.3059e-05,-1.292e-05,0.0,0 STARLINK-3553,1 51866U 22022Q   22278.23640178 -.00001292  00000-0 -63059-4 0  9999,2 51866  53.2163 227.1010 0002060  47.8340 312.2827 15.08833923 34188,6917.899,95.438,541.189,538.339,0.0
51866.0,STARLINK-3553,PAYLOAD,2022-10-05 13:37:20,15.08840296,0.0002078,53.2162,225.6141,45.4884,314.6277,-4.8621e-05,-1.062e-05,0.0,0 STARLINK-3553,1 51866U 22022Q   22278.56759742 -.00001062  00000-0 -48621-4 0  9996,2 51866  53.2162 225.6141 0002078  45.4884 314.6277 15.08840296 34233,6917.879,95.438,541.182,538.307,0.0
51866.0,STARLINK-3553,PAYLOAD,2022-10-06 05:31:11,15.08836154,0.0001678,53.2157,222.642,44.1483,315.9642,-3.6805e-05,-8.74e-06,0.0,0 STARLINK-3553,1 51866U 22022Q   22279.22999881 -.00000874  00000-0 -36805-4 0  9991,2 51866  53.2157 222.6420 0001678  44.1483 315.9642 15.08836154 34339,6917.892,95.438,540.918,538.596,0.0
51866.0,STARLINK-3553,PAYLOAD,2022-10-06 13:28:06,15.08844818,0.0001747,53.2161,221.1552,43.0118,317.1011,7.617899999999999e-05,9.25e-06,0.0,0 STARLINK-3553,1 51866U 22022Q   22279.56118995  .00000925  00000-0  76179-4 0  9990,2 51866  53.2161 221.1552 0001747  43.0118 317.1011 15.08844818 34389,6917.866,95.437,540.939,538.5219999999998,0.0
51866.0,STARLINK-3553,PAYLOAD,2022-10-07 02:11:12,15.08833823,0.0001872,53.2162,218.7753,43.7922,316.3218,0.00010337,1.357e-05,0.0,0 STARLINK-3553,1 51866U 22022Q   22280.09111719  .00001357  00000-0  10337-3 0  9990,2 51866  53.2162 218.7753 0001872  43.7922 316.3218 15.08833823 34467,6917.899,95.438,541.059,538.469,0.0
51866.0,STARLINK-3553,PAYLOAD,2022-10-07 05:21:58,15.08832298,0.0001751,53.2164,218.1809,45.3644,314.749,0.00016345,2.314e-05,0.0,0 STARLINK-3553,1 51866U 22022Q   22280.22359664  .00002314  00000-0  16345-3 0  9997,2 51866  53.2164 218.1809 0001751  45.3644 314.7490 15.08832298 34481,6917.904,95.438,540.98,538.558,0.0
51866.0,STARLINK-3553,PAYLOAD,2022-10-08 05:12:46,15.08830667,0.0001753,53.2163,213.7214,45.7694,314.3441,2.5764e-05,1.22e-06,0.0,0 STARLINK-3553,1 51866U 22022Q   22281.21720284  .00000122  00000-0  25764-4 0  9998,2 51866  53.2163 213.7214 0001753  45.7694 314.3441 15.08830667 34639,6917.909000000002,95.438,540.987,538.561,0.0
51866.0,STARLINK-3553,PAYLOAD,2022-10-08 13:09:42,15.08828019,0.0001638,53.2161,212.234,49.109,311.0044,1.6168e-05,-3.1e-07,0.0,0 STARLINK-3553,1 51866U 22022Q   22281.54840659 -.00000031  00000-0  16168-4 0  9991,2 51866  53.2161 212.2340 0001638  49.1090 311.0044 15.08828019 34687,6917.917,95.438,540.915,538.649,0.0
51866.0,STARLINK-3553,PAYLOAD,2022-10-09 01:52:47,15.08829197,0.0001865,53.2168,209.855,51.5254,308.5905,-4.8909e-05,-1.066e-05,0.0,0 STARLINK-3553,1 51866U 22022Q   22282.07833124 -.00001066  00000-0 -48909-4 0  9997,2 51866  53.2168 209.8550 0001865  51.5254 308.5905 15.08829197 34764,6917.913000000001,95.438,541.069,538.488,0.0
51866.0,STARLINK-3553,PAYLOAD,2022-10-10 01:43:34,15.08837322,0.0001810999999999,53.2164,205.3948,49.7868,310.3283,4.88e-05,4.89e-06,0.0,0 STARLINK-3553,1 51866U 22022Q   22283.07192299  .00000489  00000-0  48800-4 0  9995,2 51866  53.2164 205.3948 0001811  49.7868 310.3283 15.08837322 34919,6917.889,95.438,541.006,538.501,0.0
51866.0,STARLINK-3553,PAYLOAD,2022-10-10 04:54:20,15.08842163,0.0001803,53.2163,204.8001,48.9283,311.1865,8.776e-05,1.109e-05,0.0,0 STARLINK-3553,1 51866U 22022Q   22283.20439897  .00001109  00000-0  87760-4 0  9996,2 51866  53.2163 204.8001 0001803  48.9283 311.1865 15.08842163 34931,6917.874,95.437,540.986,538.491,0.0
51866.0,STARLINK-3553,PAYLOAD,2022-10-10 19:12:49,15.08829817,0.0001927,53.217,202.1242,55.0266,305.0907,7.265699999999999e-05,8.68e-06,0.0,0 STARLINK-3553,1 51866U 22022Q   22283.80056832  .00000868  00000-0  72657-4 0  9996,2 51866  53.2170 202.1242 0001927  55.0266 305.0907 15.08829817 35025,6917.9119999999975,95.438,541.11,538.443,0.0
51866.0,STARLINK-3553,PAYLOAD,2022-10-11 01:34:22,15.08823453,0.0001896,53.2165,200.9338,51.2618,308.8544,-1.0884e-05,-4.61e-06,0.0,0 STARLINK-3553,1 51866U 22022Q   22284.06553873 -.00000461  00000-0 -10884-4 0  9997,2 51866  53.2165 200.9338 0001896  51.2618 308.8544 15.08823453 35067,6917.931,95.439,541.1080000000002,538.484,0.0
51866.0,STARLINK-3553,PAYLOAD,2022-10-11 04:45:09,15.08821826,0.0001901,53.2164,200.3392,51.1498,308.9664,-2.8363000000000013e-05,-7.39e-06,0.0,0 STARLINK-3553,1 51866U 22022Q   22284.19802153 -.00000739  00000-0 -28363-4 0  9998,2 51866  53.2164 200.3392 0001901  51.1498 308.9664 15.08821826 35080,6917.936,95.439,541.116,538.486,0.0
51866.0,STARLINK-3553,PAYLOAD,2022-10-11 19:03:38,15.08808857,0.0001861,53.2167,197.6632,54.175,305.9415,-2.6017e-05,-7.02e-06,0.0,0 STARLINK-3553,1 51866U 22022Q   22284.79419229 -.00000702  00000-0 -26017-4 0  9996,2 51866  53.2167 197.6632 0001861  54.1750 305.9415 15.08808857 35177,6917.976,95.44,541.128,538.553,0.0
51866.0,STARLINK-3553,PAYLOAD,2022-10-12 03:00:33,15.08820919,0.0001591,53.216,196.1755,51.4254,308.688,-0.00010951,-2.03e-05,0.0,0 STARLINK-3553,1 51866U 22022Q   22285.12539317 -.00002030  00000-0 -10951-3 0  9990,2 51866  53.2160 196.1755 0001591  51.4254 308.6880 15.08820919 35224,6917.939,95.439,540.904,538.703,0.0
51866.0,STARLINK-3553,PAYLOAD,2022-10-12 10:57:29,15.08830788,0.0001861,53.2168,194.691,52.9754,307.1408,-8.5305e-05,-1.645e-05,0.0,0 STARLINK-3553,1 51866U 22022Q   22285.45659099 -.00001645  00000-0 -85305-4 0  9993,2 51866  53.2168 194.6910 0001861  52.9754 307.1408 15.08830788 35279,6917.909000000002,95.438,541.061,538.486,0.0
51866.0,STARLINK-3553,PAYLOAD,2022-10-13 04:26:43,15.08831356,0.0001857,53.2158,191.4177,46.5963,313.5183,0.00010688,1.413e-05,0.0,0 STARLINK-3553,1 51866U 22022Q   22286.18522832  .00001413  00000-0  10688-3 0  9990,2 51866  53.2158 191.4177 0001857  46.5963 313.5183 15.08831356 35389,6917.906999999997,95.438,541.056,538.487,0.0
51866.0,STARLINK-3553,PAYLOAD,2022-10-13 10:48:16,15.08833448,0.0001841,53.2159,190.229,49.5714,310.5439,0.00020172,2.923e-05,0.0,0 STARLINK-3553,1 51866U 22022Q   22286.45018550  .00002923  00000-0  20172-3 0  9993,2 51866  53.2159 190.2290 0001841  49.5714 310.5439 15.08833448 35423,6917.9,95.438,541.039,538.492,0.0
51866.0,STARLINK-3553,PAYLOAD,2022-10-14 02:42:07,15.08838099,0.0001861,53.2163,187.256,50.4293,309.6863,0.00023429,3.442e-05,0.0,0 STARLINK-3553,1 51866U 22022Q   22287.11258371  .00003442  00000-0  23429-3 0  9999,2 51866  53.2163 187.2560 0001861  50.4293 309.6863 15.08838099 35527,6917.886,95.438,541.039,538.464,0.0
51866.0,STARLINK-3553,PAYLOAD,2022-10-14 10:39:02,15.0884422,0.0001889999999999,53.2162,185.7687,50.3096,309.8062,0.00020991,3.055e-05,0.0,0 STARLINK-3553,1 51866U 22022Q   22287.44378014  .00003055  00000-0  20991-3 0  9993,2 51866  53.2162 185.7687 0001890  50.3096 309.8062 15.08844220 35572,6917.8669999999975,95.437,541.04,538.425,0.0
51866.0,STARLINK-3553,PAYLOAD,2022-10-15 00:57:29,15.0885872,0.000181,53.2165,183.0907,52.7584,307.3573,0.0001946,2.812e-05,0.0,0 STARLINK-3553,1 51866U 22022Q   22288.03992396  .00002812  00000-0  19460-3 0  9993,2 51866  53.2165 183.0907 0001810  52.7584 307.3573 15.08858720 35661,6917.823,95.436,540.94,538.436,0.0
51866.0,STARLINK-3553,PAYLOAD,2022-10-15 16:51:21,15.08846442,0.0002088,53.2182,180.1171,61.3951,298.7251,-5.2503e-05,-1.124e-05,0.0,0 STARLINK-3553,1 51866U 22022Q   22288.70233583 -.00001124  00000-0 -52503-4 0  9996,2 51866  53.2182 180.1171 0002088  61.3951 298.7251 15.08846442 35768,6917.861,95.437,541.17,538.281,0.0
